{"type": "FeatureCollection", "features": [ {"type": "Feature", "properties": {"norad_id": 66530, "name": "STARLINK-35961", "group": "last-30-days", "lat": 4.944300418499337, "lon": -108.39089458770748, "alt_km": 399.97475451344053, "timestamp": "2025-12-08T19:31:47.636434+00:00", "meta": {"OBJECT_NAME": "STARLINK-35961", "OBJECT_ID": "2025-265Q", "EPOCH": "2025-12-08T06:00:02.999808", "MEAN_MOTION": 15.57918814, "ECCENTRICITY": 0.00010919, "INCLINATION": 43.0005, "RA_OF_ASC_NODE": 80.2641, "ARG_OF_PERICENTER": 261.5242, "MEAN_ANOMALY": 348.2475, "EPHEMERIS_TYPE": 0, "CLASSIFICATION_TYPE": "U", "NORAD_CAT_ID": 66530, "ELEMENT_SET_NO": 999, "REV_AT_EPOCH": 427, "BSTAR": -0.02922033, "MEAN_MOTION_DOT": -0.01970821, "MEAN_MOTION_DDOT": 0}, "tle": {"line1": "1 66530U 25265Q   25342.25003472 -.01970821  00000+0 -29220-1 0  9994", "line2": "2 66530  43.0005  80.2641 0001091 261.5242 348.2475 15.57918814  4273"}}, "geometry": {"type": "Point", "coordinates": [-108.39089458770748, 4.944300418499337]}}, {"type": "Feature", "properties": {"norad_id": 66531, "name": "STARLINK-35960", "group": "last-30-days", "lat": 3.6530821599529504, "lon": -106.99906337440444, "alt_km": 400.27725949705746, "timestamp": "2025-12-08T19:31:47.636443+00:00", "meta": {"OBJECT_NAME": "STARLINK-35960", "OBJECT_ID": "2025-265R", "EPOCH": "2025-12-08T06:00:02.999808", "MEAN_MOTION": 15.57930955, "ECCENTRICITY": 0.00014136, "INCLINATION": 43.0004, "RA_OF_ASC_NODE": 80.2578, "ARG_OF_PERICENTER": 264.8716, "MEAN_ANOMALY": 346.8158, "EPHEMERIS_TYPE": 0, "CLASSIFICATION_TYPE": "U", "NORAD_CAT_ID": 66531, "ELEMENT_SET_NO": 999, "REV_AT_EPOCH": 427, "BSTAR": -0.029650744, "MEAN_MOTION_DOT": -0.0199726, "MEAN_MOTION_DDOT": 0}, "tle": {"line1": "1 66531U 25265R   25342.25003472 -.01997260  00000+0 -29651-1 0  9999", "line2": "2 66531  43.0004  80.2578 0001413 264.8716 346.8158 15.57930955  4274"}}, "geometry": {"type": "Point", "coordinates": [-106.99906337440444, 3.6530821599529504]}}, {"type": "Feature", "properties": {"norad_id": 66532, "name": "STARLINK-35914", "group": "last-30-days", "lat": 2.340270276837424, "lon": -105.58802181816895, "alt_km": 400.2606558772195, "timestamp": "2025-12-08T19:31:47.636456+00:00", "meta": {"OBJECT_NAME": "STARLINK-35914", "OBJECT_ID": "2025-265S", "EPOCH": "2025-12-08T06:00:02.999808", "MEAN_MOTION": 15.57922786, "ECCENTRICITY": 0.00011839, "INCLINATION": 43.0001, "RA_OF_ASC_NODE": 80.2539, "ARG_OF_PERICENTER": 260.546, "MEAN_ANOMALY": 353.0598, "EPHEMERIS_TYPE": 0, "CLASSIFICATION_TYPE": "U", "NORAD_CAT_ID": 66532, "ELEMENT_SET_NO": 999, "REV_AT_EPOCH": 427, "BSTAR": -0.029374249, "MEAN_MOTION_DOT": -0.01980243, "MEAN_MOTION_DDOT": 0}, "tle": {"line1": "1 66532U 25265S   25342.25003472 -.01980243  00000+0 -29374-1 0  9995", "line2": "2 66532  43.0001  80.2539 0001183 260.5460 353.0598 15.57922786  4273"}}, "geometry": {"type": "Point", "coordinates": [-105.58802181816895, 2.340270276837424]}}, {"type": "Feature", "properties": {"norad_id": 66533, "name": "STARLINK-35707", "group": "last-30-days", "lat": 1.0322518797209783, "lon": -104.18626664878455, "alt_km": 400.4596184749489, "timestamp": "2025-12-08T19:31:47.636465+00:00", "meta": {"OBJECT_NAME": "STARLINK-35707", "OBJECT_ID": "2025-265T", "EPOCH": "2025-12-08T06:00:02.999808", "MEAN_MOTION": 15.57917508, "ECCENTRICITY": 0.0001159, "INCLINATION": 42.9997, "RA_OF_ASC_NODE": 80.25, "ARG_OF_PERICENTER": 263.7979, "MEAN_ANOMALY": 351.7259, "EPHEMERIS_TYPE": 0, "CLASSIFICATION_TYPE": "U", "NORAD_CAT_ID": 66533, "ELEMENT_SET_NO": 999, "REV_AT_EPOCH": 427, "BSTAR": -0.029239167, "MEAN_MOTION_DOT": -0.01971896, "MEAN_MOTION_DDOT": 0}, "tle": {"line1": "1 66533U 25265T   25342.25003472 -.01971896  00000+0 -29239-1 0  9990", "line2": "2 66533  42.9997  80.2500 0001159 263.7979 351.7259 15.57917508  4272"}}, "geometry": {"type": "Point", "coordinates": [-104.18626664878455, 1.0322518797209783]}}, {"type": "Feature", "properties": {"norad_id": 66534, "name": "STARLINK-35976", "group": "last-30-days", "lat": -0.2760612021209977, "lon": -102.7867222694812, "alt_km": 400.5785357540972, "timestamp": "2025-12-08T19:31:47.636475+00:00", "meta": {"OBJECT_NAME": "STARLINK-35976", "OBJECT_ID": "2025-265U", "EPOCH": "2025-12-08T06:00:02.999808", "MEAN_MOTION": 15.57920014, "ECCENTRICITY": 0.00011265, "INCLINATION": 43.0006, "RA_OF_ASC_NODE": 80.2453, "ARG_OF_PERICENTER": 263.0477, "MEAN_ANOMALY": 354.3924, "EPHEMERIS_TYPE": 0, "CLASSIFICATION_TYPE": "U", "NORAD_CAT_ID": 66534, "ELEMENT_SET_NO": 999, "REV_AT_EPOCH": 427, "BSTAR": -0.029268532, "MEAN_MOTION_DOT": -0.01973773, "MEAN_MOTION_DDOT": 0}, "tle": {"line1": "1 66534U 25265U   25342.25003472 -.01973773  00000+0 -29269-1 0  9990", "line2": "2 66534  43.0006  80.2453 0001126 263.0477 354.3924 15.57920014  4277"}}, "geometry": {"type": "Point", "coordinates": [-102.7867222694812, -0.2760612021209977]}}, {"type": "Feature", "properties": {"norad_id": 66535, "name": "STARLINK-35514", "group": "last-30-days", "lat": -1.58234348145905, "lon": -101.38884670933159, "alt_km": 400.6110572091593, "timestamp": "2025-12-08T19:31:47.636487+00:00", "meta": {"OBJECT_NAME": "STARLINK-35514", "OBJECT_ID": "2025-265V", "EPOCH": "2025-12-08T06:00:02.999808", "MEAN_MOTION": 15.57920416, "ECCENTRICITY": 0.00011579, "INCLINATION": 43.0002, "RA_OF_ASC_NODE": 80.2407, "ARG_OF_PERICENTER": 258.7951, "MEAN_ANOMALY": 0.5622, "EPHEMERIS_TYPE": 0, "CLASSIFICATION_TYPE": "U", "NORAD_CAT_ID": 66535, "ELEMENT_SET_NO": 999, "REV_AT_EPOCH": 427, "BSTAR": -0.029288792, "MEAN_MOTION_DOT": -0.0197502, "MEAN_MOTION_DDOT": 0}, "tle": {"line1": "1 66535U 25265V   25342.25003472 -.01975020  00000+0 -29289-1 0  9990", "line2": "2 66535  43.0002  80.2407 0001157 258.7951   0.5622 15.57920416  4276"}}, "geometry": {"type": "Point", "coordinates": [-101.38884670933159, -1.58234348145905]}}, {"type": "Feature", "properties": {"norad_id": 66536, "name": "STARLINK-35640", "group": "last-30-days", "lat": -2.8782865800339015, "lon": -100.00039284548302, "alt_km": 400.91848913877584, "timestamp": "2025-12-08T19:31:47.636497+00:00", "meta": {"OBJECT_NAME": "STARLINK-35640", "OBJECT_ID": "2025-265W", "EPOCH": "2025-12-08T06:00:02.999808", "MEAN_MOTION": 15.5793345, "ECCENTRICITY": 0.00013074, "INCLINATION": 43.0005, "RA_OF_ASC_NODE": 80.235, "ARG_OF_PERICENTER": 264.2592, "MEAN_ANOMALY": 357.0125, "EPHEMERIS_TYPE": 0, "CLASSIFICATION_TYPE": "U", "NORAD_CAT_ID": 66536, "ELEMENT_SET_NO": 999, "REV_AT_EPOCH": 425, "BSTAR": -0.029711655, "MEAN_MOTION_DOT": -0.02000939, "MEAN_MOTION_DDOT": 0}, "tle": {"line1": "1 66536U 25265W   25342.25003472 -.02000939  00000+0 -29712-1 0  9991", "line2": "2 66536  43.0005  80.2350 0001307 264.2592 357.0125 15.57933450  4255"}}, "geometry": {"type": "Point", "coordinates": [-100.00039284548302, -2.8782865800339015]}}, {"type": "Feature", "properties": {"norad_id": 66537, "name": "STARLINK-35582", "group": "last-30-days", "lat": -4.185363758314915, "lon": -98.59451842713736, "alt_km": 401.1279373935604, "timestamp": "2025-12-08T19:31:47.636506+00:00", "meta": {"OBJECT_NAME": "STARLINK-35582", "OBJECT_ID": "2025-265X", "EPOCH": "2025-12-08T06:00:02.999808", "MEAN_MOTION": 15.57929077, "ECCENTRICITY": 0.00013142, "INCLINATION": 43.0005, "RA_OF_ASC_NODE": 80.2297, "ARG_OF_PERICENTER": 268.9179, "MEAN_ANOMALY": 354.2691, "EPHEMERIS_TYPE": 0, "CLASSIFICATION_TYPE": "U", "NORAD_CAT_ID": 66537, "ELEMENT_SET_NO": 999, "REV_AT_EPOCH": 427, "BSTAR": -0.02953238, "MEAN_MOTION_DOT": -0.01990085, "MEAN_MOTION_DDOT": 0}, "tle": {"line1": "1 66537U 25265X   25342.25003472 -.01990085  00000+0 -29532-1 0  9991", "line2": "2 66537  43.0005  80.2297 0001314 268.9179 354.2691 15.57929077  4275"}}, "geometry": {"type": "Point", "coordinates": [-98.59451842713736, -4.185363758314915]}}, {"type": "Feature", "properties": {"norad_id": 66538, "name": "STARLINK-35577", "group": "last-30-days", "lat": -5.486023597117826, "lon": -97.18781000634678, "alt_km": 401.16825140025594, "timestamp": "2025-12-08T19:31:47.636515+00:00", "meta": {"OBJECT_NAME": "STARLINK-35577", "OBJECT_ID": "2025-265Y", "EPOCH": "2025-12-08T06:00:02.999808", "MEAN_MOTION": 15.57929359, "ECCENTRICITY": 0.00013864, "INCLINATION": 43.0004, "RA_OF_ASC_NODE": 80.2247, "ARG_OF_PERICENTER": 265.8828, "MEAN_ANOMALY": 359.2242, "EPHEMERIS_TYPE": 0, "CLASSIFICATION_TYPE": "U", "NORAD_CAT_ID": 66538, "ELEMENT_SET_NO": 999, "REV_AT_EPOCH": 427, "BSTAR": -0.029579435, "MEAN_MOTION_DOT": -0.0199293, "MEAN_MOTION_DDOT": 0}, "tle": {"line1": "1 66538U 25265Y   25342.25003472 -.01992930  00000+0 -29579-1 0  9994", "line2": "2 66538  43.0004  80.2247 0001386 265.8828 359.2242 15.57929359  4276"}}, "geometry": {"type": "Point", "coordinates": [-97.18781000634678, -5.486023597117826]}}, {"type": "Feature", "properties": {"norad_id": 66539, "name": "STARLINK-35697", "group": "last-30-days", "lat": -6.786662871643339, "lon": -95.77157840748487, "alt_km": 401.3383582435081, "timestamp": "2025-12-08T19:31:47.636525+00:00", "meta": {"OBJECT_NAME": "STARLINK-35697", "OBJECT_ID": "2025-265Z", "EPOCH": "2025-12-08T06:00:02.999808", "MEAN_MOTION": 15.57924906, "ECCENTRICITY": 0.00012638, "INCLINATION": 43.0006, "RA_OF_ASC_NODE": 80.2195, "ARG_OF_PERICENTER": 268.1851, "MEAN_ANOMALY": 358.8405, "EPHEMERIS_TYPE": 0, "CLASSIFICATION_TYPE": "U", "NORAD_CAT_ID": 66539, "ELEMENT_SET_NO": 999, "REV_AT_EPOCH": 427, "BSTAR": -0.029464376, "MEAN_MOTION_DOT": -0.0198576, "MEAN_MOTION_DDOT": 0}, "tle": {"line1": "1 66539U 25265Z   25342.25003472 -.01985760  00000+0 -29464-1 0  9991", "line2": "2 66539  43.0006  80.2195 0001263 268.1851 358.8405 15.57924906  4276"}}, "geometry": {"type": "Point", "coordinates": [-95.77157840748487, -6.786662871643339]}}]}